[{"OBJECT_NAME":"ONEWEB-0351","OBJECT_ID":"2021-083AF","EPOCH":"2025-10-12T03:44:13.331904","MEAN_MOTION":13.20772825,"ECCENTRICITY":0.00023969,"INCLINATION":87.9224,"RA_OF_ASC_NODE":323.8988,"ARG_OF_PERICENTER":117.1998,"MEAN_ANOMALY":242.938,"EPHEMERIS_TYPE":0,"CLASSIFICATION_TYPE":"U","NORAD_CAT_ID":49215,"ELEMENT_SET_NO":999,"REV_AT_EPOCH":20403,"BSTAR":-1.441651e-6,"MEAN_MOTION_DOT":1.2e-7,"MEAN_MOTION_DDOT":0},{"OBJECT_NAME":"ONEWEB-0352","OBJECT_ID":"2021-083AG","EPOCH":"2025-10-12T07:05:32.331840","MEAN_MOTION":13.13471379,"ECCENTRICITY":0.00020257,"INCLINATION":87.9033,"RA_OF_ASC_NODE":9.5112,"ARG_OF_PERICENTER":113.6074,"MEAN_ANOMALY":246.5268,"EPHEMERIS_TYPE":0,"CLASSIFICATION_TYPE":"U","NORAD_CAT_ID":49216,"ELEMENT_SET_NO":999,"REV_AT_EPOCH":19848,"BSTAR":0.00099713659,"MEAN_MOTION_DOT":3.77e-6,"MEAN_MOTION_DDOT":0},{"OBJECT_NAME":"ONEWEB-0354","OBJECT_ID":"2021-083AH","EPOCH":"2025-10-12T04:20:46.348800","MEAN_MOTION":13.20772955,"ECCENTRICITY":0.00022101,"INCLINATION":87.9231,"RA_OF_ASC_NODE":323.8924,"ARG_OF_PERICENTER":91.4173,"MEAN_ANOMALY":268.7213,"EPHEMERIS_TYPE":0,"CLASSIFICATION_TYPE":"U","NORAD_CAT_ID":49217,"ELEMENT_SET_NO":999,"REV_AT_EPOCH":20407,"BSTAR":0.00013727934,"MEAN_MOTION_DOT":6.9e-7,"MEAN_MOTION_DDOT":0},{"OBJECT_NAME":"ONEWEB-0355","OBJECT_ID":"2021-083AJ","EPOCH":"2025-10-12T05:57:28.952928","MEAN_MOTION":13.13471585,"ECCENTRICITY":0.00020079,"INCLINATION":87.9049,"RA_OF_ASC_NODE":9.5302,"ARG_OF_PERICENTER":104.0807,"MEAN_ANOMALY":256.0546,"EPHEMERIS_TYPE":0,"CLASSIFICATION_TYPE":"U","NORAD_CAT_ID":49218,"ELEMENT_SET_NO":999,"REV_AT_EPOCH":19835,"BSTAR":-8.5127e-8,"MEAN_MOTION_DOT":1.3e-7,"MEAN_MOTION_DDOT":0},{"OBJECT_NAME":"ONEWEB-0357","OBJECT_ID":"2021-083AK","EPOCH":"2025-10-12T04:16:13.457856","MEAN_MOTION":13.20773054,"ECCENTRICITY":0.00020158,"INCLINATION":87.9224,"RA_OF_ASC_NODE":323.8913,"ARG_OF_PERICENTER":98.7085,"MEAN_ANOMALY":261.4277,"EPHEMERIS_TYPE":0,"CLASSIFICATION_TYPE":"U","NORAD_CAT_ID":49219,"ELEMENT_SET_NO":999,"REV_AT_EPOCH":20407,"BSTAR":-0.00014153873,"MEAN_MOTION_DOT":-4.5e-7,"MEAN_MOTION_DDOT":0},{"OBJECT_NAME":"ONEWEB-0332","OBJECT_ID":"2021-090A","EPOCH":"2025-10-12T05:26:43.468800","MEAN_MOTION":13.14501973,"ECCENTRICITY":0.00017175,"INCLINATION":87.9044,"RA_OF_ASC_NODE":339.1127,"ARG_OF_PERICENTER":105.5325,"MEAN_ANOMALY":254.5994,"EPHEMERIS_TYPE":0,"CLASSIFICATION_TYPE":"U","NORAD_CAT_ID":49279,"ELEMENT_SET_NO":999,"REV_AT_EPOCH":19500,"BSTAR":0.00054018496,"MEAN_MOTION_DOT":2.13e-6,"MEAN_MOTION_DDOT":0},{"OBJECT_NAME":"ONEWEB-0347","OBJECT_ID":"2021-090B","EPOCH":"2025-10-12T04:02:33.835488","MEAN_MOTION":13.20773459,"ECCENTRICITY":0.00015645,"INCLINATION":87.922,"RA_OF_ASC_NODE":323.9065,"ARG_OF_PERICENTER":100.6263,"MEAN_ANOMALY":259.5046,"EPHEMERIS_TYPE":0,"CLASSIFICATION_TYPE":"U","NORAD_CAT_ID":49280,"ELEMENT_SET_NO":999,"REV_AT_EPOCH":19830,"BSTAR":0.00020415189,"MEAN_MOTION_DOT":9.6e-7,"MEAN_MOTION_DDOT":0},{"OBJECT_NAME":"ONEWEB-0349","OBJECT_ID":"2021-090C","EPOCH":"2025-10-12T02:58:56.271360","MEAN_MOTION":13.20773695,"ECCENTRICITY":0.0001978,"INCLINATION":87.9221,"RA_OF_ASC_NODE":323.9152,"ARG_OF_PERICENTER":98.5045,"MEAN_ANOMALY":261.6312,"EPHEMERIS_TYPE":0,"CLASSIFICATION_TYPE":"U","NORAD_CAT_ID":49281,"ELEMENT_SET_NO":999,"REV_AT_EPOCH":19708,"BSTAR":0.00037053173,"MEAN_MOTION_DOT":1.64e-6,"MEAN_MOTION_DDOT":0},{"OBJECT_NAME":"ONEWEB-0353","OBJECT_ID":"2021-090D","EPOCH":"2025-10-12T05:15:18.455040","MEAN_MOTION":13.14503076,"ECCENTRICITY":0.00016781,"INCLINATION":87.9039,"RA_OF_ASC_NODE":339.0967,"ARG_OF_PERICENTER":104.4278,"MEAN_ANOMALY":255.7038,"EPHEMERIS_TYPE":0,"CLASSIFICATION_TYPE":"U","NORAD_CAT_ID":49282,"ELEMENT_SET_NO":999,"REV_AT_EPOCH":19500,"BSTAR":0.00063630499,"MEAN_MOTION_DOT":2.49e-6,"MEAN_MOTION_DDOT":0},{"OBJECT_NAME":"ONEWEB-0356","OBJECT_ID":"2021-090E","EPOCH":"2025-10-12T02:56:40.117920","MEAN_MOTION":13.20769449,"ECCENTRICITY":0.00014483,"INCLINATION":87.922,"RA_OF_ASC_NODE":323.9068,"ARG_OF_PERICENTER":69.5185,"MEAN_ANOMALY":290.6103,"EPHEMERIS_TYPE":0,"CLASSIFICATION_TYPE":"U","NORAD_CAT_ID":49283,"ELEMENT_SET_NO":999,"REV_AT_EPOCH":19708,"BSTAR":0.00022017061,"MEAN_MOTION_DOT":1.02e-6,"MEAN_MOTION_DDOT":0},{"OBJECT_NAME":"ONEWEB-0358","OBJECT_ID":"2021-090F","EPOCH":"2025-10-12T03:39:51.958944","MEAN_MOTION":13.2078847,"ECCENTRICITY":0.00018336,"INCLINATION":87.9226,"RA_OF_ASC_NODE":323.897,"ARG_OF_PERICENTER":89.5331,"MEAN_ANOMALY":270.6012,"EPHEMERIS_TYPE":0,"CLASSIFICATION_TYPE":"U","NORAD_CAT_ID":49284,"ELEMENT_SET_NO":999,"REV_AT_EPOCH":19781,"BSTAR":-0.0077134955,"MEAN_MOTION_DOT":-3.123e-5,"MEAN_MOTION_DDOT":0},{"OBJECT_NAME":"ONEWEB-0359","OBJECT_ID":"2021-090G","EPOCH":"2025-10-12T03:35:19.625280","MEAN_MOTION":13.20772338,"ECCENTRICITY":0.00022325,"INCLINATION":87.9218,"RA_OF_ASC_NODE":323.9025,"ARG_OF_PERICENTER":89.8884,"MEAN_ANOMALY":270.2505,"EPHEMERIS_TYPE":0,"CLASSIFICATION_TYPE":"U","NORAD_CAT_ID":49285,"ELEMENT_SET_NO":999,"REV_AT_EPOCH":19779,"BSTAR":0.0002740743,"MEAN_MOTION_DOT":1.24e-6,"MEAN_MOTION_DDOT":0},{"OBJECT_NAME":"ONEWEB-0360","OBJECT_ID":"2021-090H","EPOCH":"2025-10-12T03:21:41.193504","MEAN_MOTION":13.20772963,"ECCENTRICITY":0.00020515,"INCLINATION":87.922,"RA_OF_ASC_NODE":323.9131,"ARG_OF_PERICENTER":94.9652,"MEAN_ANOMALY":265.1716,"EPHEMERIS_TYPE":0,"CLASSIFICATION_TYPE":"U","NORAD_CAT_ID":49286,"ELEMENT_SET_NO":999,"REV_AT_EPOCH":19710,"BSTAR":-1.803411e-5,"MEAN_MOTION_DOT":6.0e-8,"MEAN_MOTION_DDOT":0},{"OBJECT_NAME":"ONEWEB-0361","OBJECT_ID":"2021-090J","EPOCH":"2025-10-12T02:54:24.805152","MEAN_MOTION":13.20772894,"ECCENTRICITY":0.000181,"INCLINATION":87.9221,"RA_OF_ASC_NODE":323.9127,"ARG_OF_PERICENTER":91.7847,"MEAN_ANOMALY":268.3494,"EPHEMERIS_TYPE":0,"CLASSIFICATION_TYPE":"U","NORAD_CAT_ID":49287,"ELEMENT_SET_NO":999,"REV_AT_EPOCH":19755,"BSTAR":0.00025929611,"MEAN_MOTION_DOT":1.18e-6,"MEAN_MOTION_DDOT":0},{"OBJECT_NAME":"ONEWEB-0362","OBJECT_ID":"2021-090K","EPOCH":"2025-10-12T06:09:04.878144","MEAN_MOTION":13.19722905,"ECCENTRICITY":0.00020572,"INCLINATION":87.927,"RA_OF_ASC_NODE":354.3096,"ARG_OF_PERICENTER":104.8349,"MEAN_ANOMALY":255.3011,"EPHEMERIS_TYPE":0,"CLASSIFICATION_TYPE":"U","NORAD_CAT_ID":49288,"ELEMENT_SET_NO":999,"REV_AT_EPOCH":19421,"BSTAR":-0.0002285262,"MEAN_MOTION_DOT":-7.9e-7,"MEAN_MOTION_DDOT":0},{"OBJECT_NAME":"ONEWEB-0363","OBJECT_ID":"2021-090L","EPOCH":"2025-10-12T03:17:07.807488","MEAN_MOTION":13.20773225,"ECCENTRICITY":0.0001751,"INCLINATION":87.922,"RA_OF_ASC_NODE":323.9057,"ARG_OF_PERICENTER":85.3249,"MEAN_ANOMALY":274.8084,"EPHEMERIS_TYPE":0,"CLASSIFICATION_TYPE":"U","NORAD_CAT_ID":49289,"ELEMENT_SET_NO":999,"REV_AT_EPOCH":19756,"BSTAR":0.00011195934,"MEAN_MOTION_DOT":5.9e-7,"MEAN_MOTION_DDOT":0},{"OBJECT_NAME":"ONEWEB-0364","OBJECT_ID":"2021-090M","EPOCH":"2025-10-12T04:11:41.129376","MEAN_MOTION":13.2077169,"ECCENTRICITY":0.0001835,"INCLINATION":87.9225,"RA_OF_ASC_NODE":323.9242,"ARG_OF_PERICENTER":92.732,"MEAN_ANOMALY":267.4023,"EPHEMERIS_TYPE":0,"CLASSIFICATION_TYPE":"U","NORAD_CAT_ID":49290,"ELEMENT_SET_NO":999,"REV_AT_EPOCH":19870,"BSTAR":-1.4913712e-5,"MEAN_MOTION_DOT":7.0e-8,"MEAN_MOTION_DDOT":0}]
