ONEWEB-0351             
1 49215U 21083AF  25285.15570986  .00000012  00000+0 -14417-5 0  9993
2 49215  87.9224 323.8988 0002396 117.1998 242.9380 13.20772825204036
ONEWEB-0352             
1 49216U 21083AG  25285.29551310  .00000377  00000+0  99714-3 0  9993
2 49216  87.9033   9.5112 0002025 113.6074 246.5268 13.13471379198485
ONEWEB-0354             
1 49217U 21083AH  25285.18109200  .00000069  00000+0  13728-3 0  9998
2 49217  87.9231 323.8924 0002210  91.4173 268.7213 13.20772955204079
ONEWEB-0355             
1 49218U 21083AJ  25285.24825177  .00000013  00000+0 -85127-7 0  9990
2 49218  87.9049   9.5302 0002007 104.0807 256.0546 13.13471585198353
ONEWEB-0357             
1 49219U 21083AK  25285.17793354 -.00000045  00000+0 -14154-3 0  9998
2 49219  87.9224 323.8913 0002015  98.7085 261.4277 13.20773054204077
ONEWEB-0332             
1 49279U 21090A   25285.22689200  .00000213  00000+0  54018-3 0  9990
2 49279  87.9044 339.1127 0001717 105.5325 254.5994 13.14501973195005
ONEWEB-0347             
1 49280U 21090B   25285.16844717  .00000096  00000+0  20415-3 0  9994
2 49280  87.9220 323.9065 0001564 100.6263 259.5046 13.20773459198308
ONEWEB-0349             
1 49281U 21090C   25285.12426240  .00000164  00000+0  37053-3 0  9990
2 49281  87.9221 323.9152 0001978  98.5045 261.6312 13.20773695197085
ONEWEB-0353             
1 49282U 21090D   25285.21896360  .00000249  00000+0  63630-3 0  9999
2 49282  87.9039 339.0967 0001678 104.4278 255.7038 13.14503076195003
ONEWEB-0356             
1 49283U 21090E   25285.12268655  .00000102  00000+0  22017-3 0  9992
2 49283  87.9220 323.9068 0001448  69.5185 290.6103 13.20769449197089
ONEWEB-0358             
1 49284U 21090F   25285.15268471 -.00003123  00000+0 -77135-2 0  9990
2 49284  87.9226 323.8970 0001833  89.5331 270.6012 13.20788470197813
ONEWEB-0359             
1 49285U 21090G   25285.14953270  .00000124  00000+0  27407-3 0  9992
2 49285  87.9218 323.9025 0002232  89.8884 270.2505 13.20772338197793
ONEWEB-0360             
1 49286U 21090H   25285.14006011  .00000006  00000+0 -18034-4 0  9992
2 49286  87.9220 323.9131 0002051  94.9652 265.1716 13.20772963197100
ONEWEB-0361             
1 49287U 21090J   25285.12112043  .00000118  00000+0  25930-3 0  9999
2 49287  87.9221 323.9127 0001810  91.7847 268.3494 13.20772894197550
ONEWEB-0362             
1 49288U 21090K   25285.25630646 -.00000079  00000+0 -22853-3 0  9997
2 49288  87.9270 354.3096 0002057 104.8349 255.3011 13.19722905194212
ONEWEB-0363             
1 49289U 21090L   25285.13689592  .00000059  00000+0  11196-3 0  9993
2 49289  87.9220 323.9057 0001751  85.3249 274.8084 13.20773225197569
ONEWEB-0364             
1 49290U 21090M   25285.17478159  .00000007  00000+0 -14914-4 0  9990
2 49290  87.9225 323.9242 0001835  92.7320 267.4023 13.20771690198709
